INTELSAT 23 (IS-23)     
1 38867U 12057A   26182.95209060 -.00000274  00000+0  00000+0 0  9999
2 38867   0.0116 354.0079 0000295 212.3998   3.3353  1.00267565 50105
FM-6                    
1 39360U 13058A   26182.90388493 -.00000005  00000+0  00000+0 0  9995
2 39360   0.0173  44.6969 0001910 135.7298 308.6061  1.00271204 46223
INTELSAT 30 (IS-30)     
1 40271U 14062A   26182.92215610 -.00000140  00000+0  00000+0 0  9996
2 40271   0.0221  50.7172 0001446 350.5565 115.6136  1.00271148  6943
DIRECTV 14              
1 40333U 14078B   26182.49360291 -.00000115  00000+0  00000+0 0  9992
2 40333   0.0108  16.3305 0000388  24.0591 317.6198  1.00273352 42185
DIRECTV 15              
1 40663U 15026A   26182.92059610 -.00000092  00000+0  00000+0 0  9994
2 40663   0.0155  61.3696 0000512 345.4856 101.6444  1.00269119 40616
SKY MEXICO-1            
1 40664U 15026B   26182.92536278 -.00000224  00000+0  00000+0 0  9992
2 40664   0.0183  28.6935 0002643  90.7628  54.8400  1.00270480 40607
INTELSAT 34 (IS-34)     
1 40874U 15039A   26182.85875035 -.00000275  00000+0  00000+0 0  9994
2 40874   0.0115   5.0470 0000500  30.6575 137.8512  1.00269994 39783
INTELSAT 31 (IS-31)     
1 41581U 16035A   26182.55806885 -.00000140  00000+0  00000+0 0  9992
2 41581   0.0162 287.8314 0000652 350.1203 107.5034  1.00270123 36825
INTELSAT 36 (IS-36)     
1 41747U 16053A   26182.95441804 -.00000014  00000+0  00000+0 0  9996
2 41747   0.0108  20.8787 0002042 327.2442 343.9666  1.00270637 36101
INTELSAT 32E (IS-32E)   
1 41945U 17007B   26182.86117703  .00000000  00000+0  00000+0 0  9998
2 41945   0.0232  28.3481 0000358 314.6965 203.7108  1.00267327 34374
INTELSAT 35E (IS-35E)   
1 42818U 17041A   26182.96625216  .00000000  00000+0  00000+0 0  9990
2 42818   0.0222  33.9769 0002280  74.1091 125.2659  1.00266760 32960
INTELSAT 37E (IS-37E)   
1 42950U 17059A   26182.94605882  .00000000  00000+0  00000+0 0  9991
2 42950   0.0249  41.7932 0002868  60.8717 139.9086  1.00270548 32217
AZERSPACE 2 (IS-38)     
1 43632U 18074A   26182.87861663  .00000000  00000+0  00000+0 0  9990
2 43632   0.0251  37.4253 0001621  69.9767 173.9332  1.00270392 28592
HORIZONS-3E             
1 43633U 18074B   26182.68930755 -.00000020  00000+0  00000+0 0  9992
2 43633   0.0225 196.8409 0000564  90.6373  49.4249  1.00271639 28483
AT&T T-16               
1 44333U 19034A   26182.84975118 -.00000105  00000+0  00000+0 0  9991
2 44333   0.0175  64.8441 0000597 281.2082 138.8916  1.00271693 25780
INTELSAT 39 (IS-39)     
1 44476U 19049B   26182.95441804  .00000000  00000+0  00000+0 0  9990
2 44476   0.0216  23.6119 0000954 320.7936 341.1401  1.00269595 25273
GALAXY 30 (G-30)        
1 46114U 20056C   26182.77330266  .00000047  00000+0  00000+0 0  9991
2 46114   0.0158  44.8195 0002228  54.3294 334.0556  1.00272986 21435
GALAXY 33 (G-33)        
1 54026U 22128A   26182.85431348  .00000089  00000+0  00000+0 0  9992
2 54026   0.0126  32.3198 0002035  66.7794 355.3646  1.00273141 13895
GALAXY 34 (G-34)        
1 54027U 22128B   26182.70161427  .00000000  00000+0  00000+0 0  9998
2 54027   0.0274  26.9306 0001958  83.3094 293.1069  1.00275358 14050
GALAXY 31 (G-31)        
1 54243U 22153A   26182.91704275  .00000024  00000+0  00000+0 0  9999
2 54243   0.0149  67.9422 0001576  30.1453  31.0027  1.00272041  7286
GALAXY 32 (G-32)        
1 54244U 22153B   26182.95434991 -.00000164  00000+0  00000+0 0  9995
2 54244   0.0081  21.1215 0001999  29.7071 121.7426  1.00272545 13290
GALAXY 35 (G-35)        
1 54741U 22170A   26182.92258943 -.00000152  00000+0  00000+0 0  9991
2 54741   0.0182  56.2565 0002314  46.7192  56.0134  1.00273202 13046
GALAXY 36 (G-36)        
1 54742U 22170B   26182.92336944 -.00000175  00000+0  00000+0 0  9995
2 54742   0.0167 202.6077 0002935 250.8422  69.9310  1.00272698 12921
GALAXY 37 (G-37)        
1 57493U 23112A   26182.70196094  .00000059  00000+0  00000+0 0  9994
2 57493   0.0174 341.3067 0002124 119.6002 304.5495  1.00271471 10682
